PERSEUS-M1              
1 40039U 14033AF  26132.84392112  .00001253  00000+0  11845-3 0  9993
2 40039  97.9627  76.4037 0012852  58.9907 301.2574 14.95508185645352
POLYITAN-1              
1 40042U 14033AJ  26132.99137889  .00011432  00000+0  37235-3 0  9992
2 40042  98.0975 155.9567 0005377 266.0797  93.9828 15.32018967648208
TIGRISAT                
1 40043U 14033AK  26132.94456038  .00001431  00000+0  17060-3 0  9990
2 40043  97.7790 283.7766 0049282 188.6468 171.3904 14.85007400640393
AEROCUBE 6A             
1 40045U 14033AM  26132.95262082  .00004759  00000+0  40444-3 0  9995
2 40045  97.7215 300.2935 0040264 131.8829 228.5840 14.97708768641340
AEROCUBE 6B             
1 40046U 14033AN  26133.18911926  .00003781  00000+0  31135-3 0  9991
2 40046  97.7170 300.2472 0037970 124.5789 235.9026 14.99130765641516
CANX-4                  
1 40055U 14034C   26133.09230750  .00000550  00000+0  77896-4 0  9997
2 40055  98.3171   7.1106 0013889 120.8314 239.4266 14.81197459639333
CANX-5                  
1 40056U 14034D   26133.09114566  .00000548  00000+0  77615-4 0  9990
2 40056  98.3172   7.1507 0013895 121.0302 239.2276 14.81214474630143
UKUBE-1                 
1 40074U 14037F   26132.99022304  .00005037  00000+0  28994-3 0  9992
2 40074  98.4245 132.5828 0000436  61.1860 298.9412 15.12975018643235
BRITE-PL2 (HEWELIUSZ)   
1 40119U 14049B   26133.02233051  .00000744  00000+0  74387-4 0  9991
2 40119  97.9057 244.7627 0013109 222.1055 137.9159 14.94457696636192
AEROCUBE 5C             
1 40965U 15058B   26133.03268700  .00002014  00000+0  18717-3 0  9997
2 40965  64.7690  11.9373 0129796  77.0915 284.4657 14.91248892360413
AEROCUBE 7              
1 40966U 15058C   26132.99483243  .00002972  00000+0  24644-3 0  9992
2 40966  64.7636 355.0232 0119603  75.8011 285.6355 14.95445875360691
FOX-1A (AO-85)          
1 40967U 15058D   26133.13585852  .00002000  00000+0  18869-3 0  9993
2 40967  64.7769  27.8942 0128986  70.3373 291.1605 14.90756995108341
SINOD-D 1               
1 40968U 15058E   26132.97697873  .00002999  00000+0  24860-3 0  9997
2 40968  64.7765   9.1533 0117468  67.1923 294.1549 14.95623871111395
SNAP-3 ALICE            
1 40970U 15058G   26132.37954987  .00051771  00000+0  79509-3 0  9998
2 40970  64.7532 226.9821 0032768  30.9340 329.3724 15.53340210111315
LMRST-SAT               
1 40971U 15058H   26133.14941862  .00001964  00000+0  18660-3 0  9993
2 40971  64.7775  24.1244 0130777  72.3606 289.1737 14.90382370108334
SNAP-3 EDDIE            
1 40972U 15058J   26132.84716378  .00052043  00000+0  76455-3 0  9992
2 40972  64.7453 216.3592 0033276  34.4338 325.8951 15.54530871113521
PROPCUBE 3              
1 40973U 15058K   26133.06974405  .00002573  00000+0  22188-3 0  9992
2 40973  64.7701   2.2358 0122936  73.9002 287.5606 14.94012121109553
BISONSAT                
1 40974U 15058L   26132.80216986  .00007942  00000+0  39634-3 0  9996
2 40974  64.7595 287.9745 0078716  62.5712 298.3390 15.15462139110256
SNAP-3 JIMI             
1 40975U 15058M   26132.96993897  .00004121  00000+0  29163-3 0  9999
2 40975  64.7659 331.1663 0104934  69.9706 291.2672 15.01929999108939
PROPCUBE 1 (FLORA)      
1 40976U 15058N   26133.13928822  .00001810  00000+0  17989-3 0  9991
2 40976  64.7760  43.8406 0129583  74.6421 286.8966 14.89015947111045
SINOD-D 3               
1 40977U 15058P   26133.09537006  .00002797  00000+0  24436-3 0  9997
2 40977  64.7741  25.3765 0118070  72.1592 289.2359 14.93740216109510
HORYU-4                 
1 41340U 16012D   26132.86732350  .00135031  00000+0  74881-3 0  9993
2 41340  30.9892 334.3982 0005461  23.8940 336.1970 15.78006687565204
RAVAN                   
1 41849U 16067B   26132.92565189  .00030048  00000+0  51015-3 0  9994
2 41849  97.9946  18.5175 0007232 120.1704 240.0263 15.51411029522227
CELTEE 1                
1 41850U 16067C   26132.05382507  .00003086  00000+0  14983-3 0  9996
2 41850  98.0723 356.1585 0001841  60.3871 299.7545 15.19318741520391
OPTICUBE 04             
1 41851U 16067D   26133.01438642  .00001273  00000+0  83724-4 0  9992
2 41851  98.0737 343.4603 0014453 233.7332 126.2560 15.09505335519865
AEROCUBE 8D             
1 41852U 16067E   26133.09707921  .00004939  00000+0  20794-3 0  9999
2 41852  98.0735   0.6055 0001957 245.4466 114.6565 15.23893234520727
AEROCUBE 8C             
1 41853U 16067F   26132.40547126  .00004433  00000+0  18565-3 0  9995
2 41853  98.0607 357.1359 0005476 168.8426 191.2932 15.24123976520614
CORVUS BC2              
1 42846U 17042X   26133.18336502  .00002087  00000+0  14682-3 0  9991
2 42846  97.4037 295.9077 0011942 226.6476 133.3757 15.06067124481795
CORVUS BC1              
1 42847U 17042Y   26132.98265326  .00002200  00000+0  15389-3 0  9996
2 42847  97.4070 296.5060 0011310 201.2358 158.8402 15.06238717481796
MAKERSAT 0              
1 43016U 17073D   26132.17512071  .00015764  00000+0  44167-3 0  9997
2 43016  97.4681  14.4471 0111834  41.9670 319.0072 15.30547279460956
